start=new Date('2023-03-18T00:00:00.000Z').valueOf();
sats=[{"RCS_SIZE":"LARGE","APOAPSIS":"540.829","MEAN_ANOMALY":"283.7200","MEAN_ELEMENT_THEORY":"SGP4","MEAN_MOTION_DDOT":"0.0000000000000","MEAN_MOTION_DOT":"-0.00001424","REF_FRAME":"TEME","INCLINATION":"53.2141","TLE_LINE2":"2 54809  53.2141 233.8138 0001490  76.3958 283.7200 15.08822773 15858","NORAD_CAT_ID":"54809","ECCENTRICITY":"0.00014900","PERIOD":"95.439","CENTER_NAME":"EARTH","BSTAR":"-0.00007142500000","LAUNCH_DATE":"2022-12-17","GP_ID":"228327742","CLASSIFICATION_TYPE":"U","MEAN_MOTION":"15.08822773","TIME_SYSTEM":"UTC","OBJECT_TYPE":"PAYLOAD","FILE":"3863278","PERIAPSIS":"538.767","RA_OF_ASC_NODE":"233.8138","ARG_OF_PERICENTER":"76.3958","EPOCH":"2023-03-17T11:35:47.491584","ELEMENT_SET_NO":"999","SEMIMAJOR_AXIS":"6917.933","COUNTRY_CODE":"US","DECAY_DATE":null,"EPHEMERIS_TYPE":"0","OBJECT_NAME":"STARLINK-5414","OBJECT_ID":"2022-175BD","REV_AT_EPOCH":"1585","TLE_LINE1":"1 54809U 22175BD  23076.48318856 -.00001424  00000-0 -71425-4 0  9990","SITE":"AFETR"},{"PERIAPSIS":"538.952","ARG_OF_PERICENTER":"84.3224","RA_OF_ASC_NODE":"227.4471","EPOCH":"2023-03-17T22:00:00.999936","SEMIMAJOR_AXIS":"6917.952","ELEMENT_SET_NO":"999","OBJECT_NAME":"STARLINK-5408","COUNTRY_CODE":"US","DECAY_DATE":null,"EPHEMERIS_TYPE":"0","REV_AT_EPOCH":"130","OBJECT_ID":"2022-175BE","SITE":"AFETR","TLE_LINE1":"1 54810U 22175BE  23076.91667824  .00020564  00000-0  13072-2 0  9998","RCS_SIZE":"LARGE","MEAN_ANOMALY":"173.7076","APOAPSIS":"540.683","REF_FRAME":"TEME","MEAN_MOTION_DOT":"0.00020564","MEAN_MOTION_DDOT":"0.0000000000000","MEAN_ELEMENT_THEORY":"SGP4","TLE_LINE2":"2 54810  53.2141 227.4471 0001251  84.3224 173.7076 15.08816460  1309","NORAD_CAT_ID":"54810","INCLINATION":"53.2141","BSTAR":"0.00130720000000","CENTER_NAME":"EARTH","PERIOD":"95.439","ECCENTRICITY":"0.00012510","MEAN_MOTION":"15.08816460","CLASSIFICATION_TYPE":"U","TIME_SYSTEM":"UTC","LAUNCH_DATE":"2022-12-17","GP_ID":"228358041","OBJECT_TYPE":"PAYLOAD","FILE":"3863544"},{"ECCENTRICITY":"0.00011810","PERIOD":"95.440","CENTER_NAME":"EARTH","BSTAR":"0.00257620000000","LAUNCH_DATE":"2022-12-17","GP_ID":"228359292","CLASSIFICATION_TYPE":"U","TIME_SYSTEM":"UTC","MEAN_MOTION":"15.08807969","OBJECT_TYPE":"PAYLOAD","FILE":"3863544","RCS_SIZE":"LARGE","APOAPSIS":"540.660","MEAN_ANOMALY":"359.5906","MEAN_ELEMENT_THEORY":"SGP4","MEAN_MOTION_DDOT":"0.0000000000000","MEAN_MOTION_DOT":"0.00040914","REF_FRAME":"TEME","INCLINATION":"53.2147","TLE_LINE2":"2 54811  53.2147 227.0935 0001181  78.6792 359.5906 15.08807969  1305","NORAD_CAT_ID":"54811","DECAY_DATE":null,"COUNTRY_CODE":"US","EPHEMERIS_TYPE":"0","OBJECT_NAME":"STARLINK-5424","OBJECT_ID":"2022-175BF","REV_AT_EPOCH":"130","TLE_LINE1":"1 54811U 22175BF  23076.91667824  .00040914  00000-0  25762-2 0  9999","SITE":"AFETR","PERIAPSIS":"539.026","RA_OF_ASC_NODE":"227.0935","ARG_OF_PERICENTER":"78.6792","EPOCH":"2023-03-17T22:00:00.999936","ELEMENT_SET_NO":"999","SEMIMAJOR_AXIS":"6917.978"},{"PERIAPSIS":"557.851","ARG_OF_PERICENTER":"269.2360","RA_OF_ASC_NODE":"284.5951","EPOCH":"2023-03-17T20:32:41.049024","ELEMENT_SET_NO":"999","SEMIMAJOR_AXIS":"6937.197","EPHEMERIS_TYPE":"0","DECAY_DATE":null,"COUNTRY_CODE":"US","OBJECT_NAME":"STARLINK-5382","REV_AT_EPOCH":"1331","OBJECT_ID":"2022-177A","TLE_LINE1":"1 54820U 22177A   23076.85603066 -.00000555  00000-0 -25997-4 0  9993","SITE":"AFETR","RCS_SIZE":"LARGE","APOAPSIS":"560.273","MEAN_ANOMALY":"90.8282","MEAN_MOTION_DDOT":"0.0000000000000","MEAN_ELEMENT_THEORY":"SGP4","REF_FRAME":"TEME","MEAN_MOTION_DOT":"-0.00000555","INCLINATION":"43.0016","TLE_LINE2":"2 54820  43.0016 284.5951 0001746 269.2360  90.8282 15.02542352 13311","NORAD_CAT_ID":"54820","CENTER_NAME":"EARTH","PERIOD":"95.838","ECCENTRICITY":"0.00017460","BSTAR":"-0.00002599700000","GP_ID":"228358541","LAUNCH_DATE":"2022-12-28","CLASSIFICATION_TYPE":"U","MEAN_MOTION":"15.02542352","TIME_SYSTEM":"UTC","OBJECT_TYPE":"PAYLOAD","FILE":"3863544"},{"SEMIMAJOR_AXIS":"6937.212","ELEMENT_SET_NO":"999","EPOCH":"2023-03-17T20:29:30.091200","ARG_OF_PERICENTER":"273.4528","RA_OF_ASC_NODE":"284.5795","PERIAPSIS":"557.742","SITE":"AFETR","TLE_LINE1":"1 54821U 22177B   23076.85382050  .00000106  00000-0  22938-4 0  9993","REV_AT_EPOCH":"1331","OBJECT_ID":"2022-177B","OBJECT_NAME":"STARLINK-5385","EPHEMERIS_TYPE":"0","DECAY_DATE":null,"COUNTRY_CODE":"US","NORAD_CAT_ID":"54821","TLE_LINE2":"2 54821  43.0022 284.5795 0001924 273.4528  86.6095 15.02537593 13312","INCLINATION":"43.0022","REF_FRAME":"TEME","MEAN_MOTION_DOT":"0.00000106","MEAN_ELEMENT_THEORY":"SGP4","MEAN_MOTION_DDOT":"0.0000000000000","MEAN_ANOMALY":"86.6095","APOAPSIS":"560.411","RCS_SIZE":"LARGE","FILE":"3863544","OBJECT_TYPE":"PAYLOAD","TIME_SYSTEM":"UTC","CLASSIFICATION_TYPE":"U","MEAN_MOTION":"15.02537593","GP_ID":"228358793","LAUNCH_DATE":"2022-12-28","BSTAR":"0.00002293800000","CENTER_NAME":"EARTH","ECCENTRICITY":"0.00019240","PERIOD":"95.838"},{"INCLINATION":"43.0019","NORAD_CAT_ID":"54822","TLE_LINE2":"2 54822  43.0019 284.4630 0001757 274.3908  85.6733 15.02537991 13312","MEAN_MOTION_DDOT":"0.0000000000000","MEAN_ELEMENT_THEORY":"SGP4","MEAN_MOTION_DOT":"0.00001626","REF_FRAME":"TEME","APOAPSIS":"560.294","MEAN_ANOMALY":"85.6733","RCS_SIZE":"LARGE","FILE":"3863544","OBJECT_TYPE":"PAYLOAD","GP_ID":"228359043","LAUNCH_DATE":"2022-12-28","CLASSIFICATION_TYPE":"U","TIME_SYSTEM":"UTC","MEAN_MOTION":"15.02537991","PERIOD":"95.838","ECCENTRICITY":"0.00017570","CENTER_NAME":"EARTH","BSTAR":"0.00013542000000","ELEMENT_SET_NO":"999","SEMIMAJOR_AXIS":"6937.210","EPOCH":"2023-03-17T20:07:07.048992","RA_OF_ASC_NODE":"284.4630","ARG_OF_PERICENTER":"274.3908","PERIAPSIS":"557.857","TLE_LINE1":"1 54822U 22177C   23076.83827603  .00001626  00000-0  13542-3 0  9998","SITE":"AFETR","OBJECT_ID":"2022-177C","REV_AT_EPOCH":"1331","DECAY_DATE":null,"COUNTRY_CODE":"US","EPHEMERIS_TYPE":"0","OBJECT_NAME":"STARLINK-5101"},{"PERIAPSIS":"557.991","RA_OF_ASC_NODE":"284.5623","ARG_OF_PERICENTER":"269.4449","EPOCH":"2023-03-17T20:26:18.166560","ELEMENT_SET_NO":"999","SEMIMAJOR_AXIS":"6937.235","DECAY_DATE":null,"EPHEMERIS_TYPE":"0","COUNTRY_CODE":"US","OBJECT_NAME":"STARLINK-5106","OBJECT_ID":"2022-177D","REV_AT_EPOCH":"1331","TLE_LINE1":"1 54823U 22177D   23076.85159915  .00005560  00000-0  42638-3 0  9994","SITE":"AFETR","RCS_SIZE":"LARGE","APOAPSIS":"560.208","MEAN_ANOMALY":"90.6210","MEAN_ELEMENT_THEORY":"SGP4","MEAN_MOTION_DDOT":"0.0000000000000","MEAN_MOTION_DOT":"0.00005560","REF_FRAME":"TEME","INCLINATION":"43.0005","NORAD_CAT_ID":"54823","TLE_LINE2":"2 54823  43.0005 284.5623 0001598 269.4449  90.6210 15.02530140 13314","ECCENTRICITY":"0.00015980","PERIOD":"95.838","CENTER_NAME":"EARTH","BSTAR":"0.00042638000000","GP_ID":"228358291","LAUNCH_DATE":"2022-12-28","MEAN_MOTION":"15.02530140","CLASSIFICATION_TYPE":"U","TIME_SYSTEM":"UTC","OBJECT_TYPE":"PAYLOAD","FILE":"3863544"},{"ELEMENT_SET_NO":"999","SEMIMAJOR_AXIS":"6937.141","EPOCH":"2023-03-17T20:21:29.252736","ARG_OF_PERICENTER":"276.1791","RA_OF_ASC_NODE":"284.5350","PERIAPSIS":"557.984","TLE_LINE1":"1 54824U 22177E   23076.84825524 -.00002949  00000-0 -20316-3 0  9999","SITE":"AFETR","REV_AT_EPOCH":"1331","OBJECT_ID":"2022-177E","DECAY_DATE":null,"COUNTRY_CODE":"US","EPHEMERIS_TYPE":"0","OBJECT_NAME":"STARLINK-4643","INCLINATION":"43.0012","NORAD_CAT_ID":"54824","TLE_LINE2":"2 54824  43.0012 284.5350 0001472 276.1791  83.8884 15.02560681 13310","MEAN_MOTION_DDOT":"0.0000000000000","MEAN_ELEMENT_THEORY":"SGP4","REF_FRAME":"TEME","MEAN_MOTION_DOT":"-0.00002949","APOAPSIS":"560.027","MEAN_ANOMALY":"83.8884","RCS_SIZE":"LARGE","FILE":"3863544","OBJECT_TYPE":"PAYLOAD","LAUNCH_DATE":"2022-12-28","GP_ID":"228358042","MEAN_MOTION":"15.02560681","CLASSIFICATION_TYPE":"U","TIME_SYSTEM":"UTC","CENTER_NAME":"EARTH","ECCENTRICITY":"0.00014720","PERIOD":"95.836","BSTAR":"-0.00020316000000"},{"EPOCH":"2023-03-17T20:13:30.651168","SEMIMAJOR_AXIS":"6937.173","ELEMENT_SET_NO":"999","PERIAPSIS":"558.353","RA_OF_ASC_NODE":"284.4948","ARG_OF_PERICENTER":"287.3245","OBJECT_ID":"2022-177F","REV_AT_EPOCH":"1331","SITE":"AFETR","TLE_LINE1":"1 54825U 22177F   23076.84271587  .00011722  00000-0  88100-3 0  9996","OBJECT_NAME":"STARLINK-4801","COUNTRY_CODE":"US","DECAY_DATE":null,"EPHEMERIS_TYPE":"0","MEAN_MOTION_DOT":"0.00011722","REF_FRAME":"TEME","MEAN_ELEMENT_THEORY":"SGP4","MEAN_MOTION_DDOT":"0.0000000000000","TLE_LINE2":"2 54825  42.9990 284.4948 0000987 287.3245  72.7489 15.02550294 13311","NORAD_CAT_ID":"54825","INCLINATION":"42.9990","RCS_SIZE":"LARGE","MEAN_ANOMALY":"72.7489","APOAPSIS":"559.722","OBJECT_TYPE":"PAYLOAD","FILE":"3863544","BSTAR":"0.00088100000000","PERIOD":"95.837","ECCENTRICITY":"0.00009870","CENTER_NAME":"EARTH","CLASSIFICATION_TYPE":"U","TIME_SYSTEM":"UTC","MEAN_MOTION":"15.02550294","GP_ID":"228359293","LAUNCH_DATE":"2022-12-28"},{"FILE":"3863544","OBJECT_TYPE":"PAYLOAD","GP_ID":"228359543","LAUNCH_DATE":"2022-12-28","TIME_SYSTEM":"UTC","CLASSIFICATION_TYPE":"U","MEAN_MOTION":"15.02544491","PERIOD":"95.837","ECCENTRICITY":"0.00014990","CENTER_NAME":"EARTH","BSTAR":"0.00017364000000","INCLINATION":"43.0004","NORAD_CAT_ID":"54826","TLE_LINE2":"2 54826  43.0004 284.4783 0001499 270.5055  89.5616 15.02544491 13319","MEAN_ELEMENT_THEORY":"SGP4","MEAN_MOTION_DDOT":"0.0000000000000","MEAN_MOTION_DOT":"0.00002143","REF_FRAME":"TEME","APOAPSIS":"560.095","MEAN_ANOMALY":"89.5616","RCS_SIZE":"LARGE","TLE_LINE1":"1 54826U 22177G   23076.84049268  .00002143  00000-0  17364-3 0  9997","SITE":"AFETR","OBJECT_ID":"2022-177G","REV_AT_EPOCH":"1331","COUNTRY_CODE":"US","DECAY_DATE":null,"EPHEMERIS_TYPE":"0","OBJECT_NAME":"STARLINK-5107","ELEMENT_SET_NO":"999","SEMIMAJOR_AXIS":"6937.190","EPOCH":"2023-03-17T20:10:18.567552","RA_OF_ASC_NODE":"284.4783","ARG_OF_PERICENTER":"270.5055","PERIAPSIS":"558.016"}];
